[
  {
    "OBJECT_NAME": "STARLINK-31956",
    "OBJECT_ID": "24106J",
    "EPOCH": "2025-11-11T06:39:49.582080",
    "MEAN_MOTION": 15.27573761,
    "ECCENTRICITY": 5.66e-05,
    "INCLINATION": 43.008,
    "RA_OF_ASC_NODE": 281.2119,
    "ARG_OF_PERICENTER": 303.5903,
    "MEAN_ANOMALY": 56.4894,
    "EPHEMERIS_TYPE": 0,
    "CLASSIFICATION_TYPE": "U",
    "NORAD_CAT_ID": 59930,
    "ELEMENT_SET_NO": 999,
    "REV_AT_EPOCH": 8241,
    "BSTAR": 5.4508e-05,
    "MEAN_MOTION_DOT": 1.238e-05,
    "MEAN_MOTION_DDOT": 0.0,
    "TLE_LINE1": "1 59930U 24106J   25315.27765720  .00001238  00000+0  54508-4 0  9990",
    "TLE_LINE2": "2 59930  43.0080 281.2119 0000566 303.5903  56.4894 15.27573761 82412",
    "COMMENT": "Grouped by shell and plane from TLE"
  },
  {
    "OBJECT_NAME": "STARLINK-31960",
    "OBJECT_ID": "24106K",
    "EPOCH": "2025-11-11T06:17:35.515968",
    "MEAN_MOTION": 15.27591338,
    "ECCENTRICITY": 5.98e-05,
    "INCLINATION": 43.001,
    "RA_OF_ASC_NODE": 281.1003,
    "ARG_OF_PERICENTER": 280.7987,
    "MEAN_ANOMALY": 79.2798,
    "EPHEMERIS_TYPE": 0,
    "CLASSIFICATION_TYPE": "U",
    "NORAD_CAT_ID": 59931,
    "ELEMENT_SET_NO": 999,
    "REV_AT_EPOCH": 8241,
    "BSTAR": 0.00025127,
    "MEAN_MOTION_DOT": 6.661e-05,
    "MEAN_MOTION_DDOT": 0.0,
    "TLE_LINE1": "1 59931U 24106K   25315.26221662  .00006661  00000+0  25127-3 0  9991",
    "TLE_LINE2": "2 59931  43.0010 281.1003 0000598 280.7987  79.2798 15.27591338 82416",
    "COMMENT": "Grouped by shell and plane from TLE"
  },
  {
    "OBJECT_NAME": "STARLINK-31432",
    "OBJECT_ID": "24106L",
    "EPOCH": "2025-11-11T05:37:03.918432",
    "MEAN_MOTION": 15.27684571,
    "ECCENTRICITY": 0.0007781,
    "INCLINATION": 43.0026,
    "RA_OF_ASC_NODE": 281.7598,
    "ARG_OF_PERICENTER": 233.6086,
    "MEAN_ANOMALY": 126.4048,
    "EPHEMERIS_TYPE": 0,
    "CLASSIFICATION_TYPE": "U",
    "NORAD_CAT_ID": 59932,
    "ELEMENT_SET_NO": 999,
    "REV_AT_EPOCH": 8240,
    "BSTAR": 0.0030264000000000003,
    "MEAN_MOTION_DOT": 0.00084303,
    "MEAN_MOTION_DDOT": 0.0,
    "TLE_LINE1": "1 59932U 24106L   25315.23407313  .00084303  00000+0  30264-2 0  9994",
    "TLE_LINE2": "2 59932  43.0026 281.7598 0007781 233.6086 126.4048 15.27684571 82401",
    "COMMENT": "Grouped by shell and plane from TLE"
  },
  {
    "OBJECT_NAME": "STARLINK-31853",
    "OBJECT_ID": "24106M",
    "EPOCH": "2025-11-11T06:45:21.295872",
    "MEAN_MOTION": 15.27583743,
    "ECCENTRICITY": 2.55e-05,
    "INCLINATION": 43.0038,
    "RA_OF_ASC_NODE": 281.2422,
    "ARG_OF_PERICENTER": 161.5054,
    "MEAN_ANOMALY": 198.5807,
    "EPHEMERIS_TYPE": 0,
    "CLASSIFICATION_TYPE": "U",
    "NORAD_CAT_ID": 59933,
    "ELEMENT_SET_NO": 999,
    "REV_AT_EPOCH": 8241,
    "BSTAR": 0.00019203999999999998,
    "MEAN_MOTION_DOT": 5.027e-05,
    "MEAN_MOTION_DDOT": 0.0,
    "TLE_LINE1": "1 59933U 24106M   25315.28149648  .00005027  00000+0  19204-3 0  9992",
    "TLE_LINE2": "2 59933  43.0038 281.2422 0000255 161.5054 198.5807 15.27583743 82412",
    "COMMENT": "Grouped by shell and plane from TLE"
  },
  {
    "OBJECT_NAME": "STARLINK-31962",
    "OBJECT_ID": "24106Q",
    "EPOCH": "2025-11-11T07:16:48.862848",
    "MEAN_MOTION": 15.27609448,
    "ECCENTRICITY": 0.0001102,
    "INCLINATION": 43.002,
    "RA_OF_ASC_NODE": 281.4097,
    "ARG_OF_PERICENTER": 282.0401,
    "MEAN_ANOMALY": 78.0327,
    "EPHEMERIS_TYPE": 0,
    "CLASSIFICATION_TYPE": "U",
    "NORAD_CAT_ID": 59936,
    "ELEMENT_SET_NO": 999,
    "REV_AT_EPOCH": 8241,
    "BSTAR": 0.00043809,
    "MEAN_MOTION_DOT": 0.00011823,
    "MEAN_MOTION_DDOT": 0.0,
    "TLE_LINE1": "1 59936U 24106Q   25315.30334332  .00011823  00000+0  43809-3 0  9993",
    "TLE_LINE2": "2 59936  43.0020 281.4097 0001102 282.0401  78.0327 15.27609448 82413",
    "COMMENT": "Grouped by shell and plane from TLE"
  },
  {
    "OBJECT_NAME": "STARLINK-31879",
    "OBJECT_ID": "24106R",
    "EPOCH": "2025-11-11T05:57:27.560160",
    "MEAN_MOTION": 15.27575934,
    "ECCENTRICITY": 0.0001471,
    "INCLINATION": 43.0036,
    "RA_OF_ASC_NODE": 281.8516,
    "ARG_OF_PERICENTER": 302.8728,
    "MEAN_ANOMALY": 57.1982,
    "EPHEMERIS_TYPE": 0,
    "CLASSIFICATION_TYPE": "U",
    "NORAD_CAT_ID": 59937,
    "ELEMENT_SET_NO": 999,
    "REV_AT_EPOCH": 8245,
    "BSTAR": 0.00016085,
    "MEAN_MOTION_DOT": 4.166e-05,
    "MEAN_MOTION_DDOT": 0.0,
    "TLE_LINE1": "1 59937U 24106R   25315.24823565  .00004166  00000+0  16085-3 0  9996",
    "TLE_LINE2": "2 59937  43.0036 281.8516 0001471 302.8728  57.1982 15.27575934 82454",
    "COMMENT": "Grouped by shell and plane from TLE"
  },
  {
    "OBJECT_NAME": "STARLINK-31876",
    "OBJECT_ID": "24106S",
    "EPOCH": "2025-11-11T06:34:14.855520",
    "MEAN_MOTION": 15.27601275,
    "ECCENTRICITY": 0.0001118,
    "INCLINATION": 43.0008,
    "RA_OF_ASC_NODE": 281.1837,
    "ARG_OF_PERICENTER": 275.164,
    "MEAN_ANOMALY": 84.9084,
    "EPHEMERIS_TYPE": 0,
    "CLASSIFICATION_TYPE": "U",
    "NORAD_CAT_ID": 59938,
    "ELEMENT_SET_NO": 999,
    "REV_AT_EPOCH": 8242,
    "BSTAR": 0.00022002,
    "MEAN_MOTION_DOT": 5.801e-05,
    "MEAN_MOTION_DDOT": 0.0,
    "TLE_LINE1": "1 59938U 24106S   25315.27378305  .00005801  00000+0  22002-3 0  9990",
    "TLE_LINE2": "2 59938  43.0008 281.1837 0001118 275.1640  84.9084 15.27601275 82422",
    "COMMENT": "Grouped by shell and plane from TLE"
  },
  {
    "OBJECT_NAME": "STARLINK-31955",
    "OBJECT_ID": "24106T",
    "EPOCH": "2025-11-11T06:23:09.295584",
    "MEAN_MOTION": 15.27638738,
    "ECCENTRICITY": 0.0001328,
    "INCLINATION": 43.0005,
    "RA_OF_ASC_NODE": 281.1271,
    "ARG_OF_PERICENTER": 261.384,
    "MEAN_ANOMALY": 98.6861,
    "EPHEMERIS_TYPE": 0,
    "CLASSIFICATION_TYPE": "U",
    "NORAD_CAT_ID": 59939,
    "ELEMENT_SET_NO": 999,
    "REV_AT_EPOCH": 8245,
    "BSTAR": 0.0018046000000000002,
    "MEAN_MOTION_DOT": 0.00049823,
    "MEAN_MOTION_DDOT": 0.0,
    "TLE_LINE1": "1 59939U 24106T   25315.26607981  .00049823  00000+0  18046-2 0  9999",
    "TLE_LINE2": "2 59939  43.0005 281.1271 0001328 261.3840  98.6861 15.27638738 82456",
    "COMMENT": "Grouped by shell and plane from TLE"
  },
  {
    "OBJECT_NAME": "STARLINK-31946",
    "OBJECT_ID": "24106U",
    "EPOCH": "2025-11-10T23:35:16.845504",
    "MEAN_MOTION": 15.27580208,
    "ECCENTRICITY": 0.0001533,
    "INCLINATION": 43.0052,
    "RA_OF_ASC_NODE": 283.3007,
    "ARG_OF_PERICENTER": 252.6567,
    "MEAN_ANOMALY": 107.4118,
    "EPHEMERIS_TYPE": 0,
    "CLASSIFICATION_TYPE": "U",
    "NORAD_CAT_ID": 59940,
    "ELEMENT_SET_NO": 999,
    "REV_AT_EPOCH": 7299,
    "BSTAR": 6.2966e-05,
    "MEAN_MOTION_DOT": 1.471e-05,
    "MEAN_MOTION_DDOT": 0.0,
    "TLE_LINE1": "1 59940U 24106U   25314.98283386  .00001471  00000+0  62966-4 0  9997",
    "TLE_LINE2": "2 59940  43.0052 283.3007 0001533 252.6567 107.4118 15.27580208 72998",
    "COMMENT": "Grouped by shell and plane from TLE"
  },
  {
    "OBJECT_NAME": "STARLINK-31900",
    "OBJECT_ID": "24106W",
    "EPOCH": "2025-11-11T06:08:20.538528",
    "MEAN_MOTION": 15.27593335,
    "ECCENTRICITY": 0.0001443,
    "INCLINATION": 43.0027,
    "RA_OF_ASC_NODE": 281.054,
    "ARG_OF_PERICENTER": 290.8436,
    "MEAN_ANOMALY": 69.2261,
    "EPHEMERIS_TYPE": 0,
    "CLASSIFICATION_TYPE": "U",
    "NORAD_CAT_ID": 59942,
    "ELEMENT_SET_NO": 999,
    "REV_AT_EPOCH": 8241,
    "BSTAR": 0.00015570000000000002,
    "MEAN_MOTION_DOT": 4.027e-05,
    "MEAN_MOTION_DDOT": 0.0,
    "TLE_LINE1": "1 59942U 24106W   25315.25579327  .00004027  00000+0  15570-3 0  9991",
    "TLE_LINE2": "2 59942  43.0027 281.0540 0001443 290.8436  69.2261 15.27593335 82415",
    "COMMENT": "Grouped by shell and plane from TLE"
  },
  {
    "OBJECT_NAME": "STARLINK-31973",
    "OBJECT_ID": "24106X",
    "EPOCH": "2025-11-11T07:05:44.133216",
    "MEAN_MOTION": 15.2757326,
    "ECCENTRICITY": 9.09e-05,
    "INCLINATION": 43.0036,
    "RA_OF_ASC_NODE": 281.355,
    "ARG_OF_PERICENTER": 275.519,
    "MEAN_ANOMALY": 84.5558,
    "EPHEMERIS_TYPE": 0,
    "CLASSIFICATION_TYPE": "U",
    "NORAD_CAT_ID": 59943,
    "ELEMENT_SET_NO": 999,
    "REV_AT_EPOCH": 8241,
    "BSTAR": 3.1654e-05,
    "MEAN_MOTION_DOT": 6.09e-06,
    "MEAN_MOTION_DDOT": 0.0,
    "TLE_LINE1": "1 59943U 24106X   25315.29564969  .00000609  00000+0  31654-4 0  9996",
    "TLE_LINE2": "2 59943  43.0036 281.3550 0000909 275.5190  84.5558 15.27573260 82417",
    "COMMENT": "Grouped by shell and plane from TLE"
  },
  {
    "OBJECT_NAME": "STARLINK-31966",
    "OBJECT_ID": "24106Y",
    "EPOCH": "2025-11-11T07:00:08.880480",
    "MEAN_MOTION": 15.27613418,
    "ECCENTRICITY": 2.82e-05,
    "INCLINATION": 43.0025,
    "RA_OF_ASC_NODE": 281.3207,
    "ARG_OF_PERICENTER": 341.5468,
    "MEAN_ANOMALY": 18.5373,
    "EPHEMERIS_TYPE": 0,
    "CLASSIFICATION_TYPE": "U",
    "NORAD_CAT_ID": 59944,
    "ELEMENT_SET_NO": 999,
    "REV_AT_EPOCH": 8246,
    "BSTAR": 0.0,
    "MEAN_MOTION_DOT": -3.127e-05,
    "MEAN_MOTION_DDOT": 0.0,
    "TLE_LINE1": "1 59944U 24106Y   25315.29176945 -.00003127  00000+0 -10406-3 0  9991",
    "TLE_LINE2": "2 59944  43.0025 281.3207 0000282 341.5468  18.5373 15.27613418 82468",
    "COMMENT": "Grouped by shell and plane from TLE"
  },
  {
    "OBJECT_NAME": "STARLINK-32350",
    "OBJECT_ID": "24164P",
    "EPOCH": "2025-11-11T04:21:10.953792",
    "MEAN_MOTION": 15.30197059,
    "ECCENTRICITY": 0.0001465,
    "INCLINATION": 53.1604,
    "RA_OF_ASC_NODE": 281.5606,
    "ARG_OF_PERICENTER": 95.4301,
    "MEAN_ANOMALY": 264.6867,
    "EPHEMERIS_TYPE": 0,
    "CLASSIFICATION_TYPE": "U",
    "NORAD_CAT_ID": 61063,
    "ELEMENT_SET_NO": 999,
    "REV_AT_EPOCH": 6533,
    "BSTAR": 6.0154e-05,
    "MEAN_MOTION_DOT": 1.423e-05,
    "MEAN_MOTION_DDOT": 0.0,
    "TLE_LINE1": "1 61063U 24164P   25315.18137678  .00001423  00000+0  60154-4 0  9999",
    "TLE_LINE2": "2 61063  53.1604 281.5606 0001465  95.4301 264.6867 15.30197059 65339",
    "COMMENT": "Grouped by shell and plane from TLE"
  }
]